[{"OBJECT_NAME":"ONEWEB-0138","OBJECT_ID":"2020-100AC","EPOCH":"2025-10-19T07:04:56.219232","MEAN_MOTION":13.12442877,"ECCENTRICITY":0.0001903,"INCLINATION":87.8962,"RA_OF_ASC_NODE":38.5127,"ARG_OF_PERICENTER":105.4814,"MEAN_ANOMALY":254.6525,"EPHEMERIS_TYPE":0,"CLASSIFICATION_TYPE":"U","NORAD_CAT_ID":47284,"ELEMENT_SET_NO":999,"REV_AT_EPOCH":23305,"BSTAR":0.0012806848,"MEAN_MOTION_DOT":4.73e-6,"MEAN_MOTION_DDOT":0},{"OBJECT_NAME":"ONEWEB-0139","OBJECT_ID":"2020-100AD","EPOCH":"2025-10-19T06:11:23.505216","MEAN_MOTION":13.12445942,"ECCENTRICITY":0.00016974,"INCLINATION":87.8961,"RA_OF_ASC_NODE":38.5103,"ARG_OF_PERICENTER":102.4827,"MEAN_ANOMALY":257.6492,"EPHEMERIS_TYPE":0,"CLASSIFICATION_TYPE":"U","NORAD_CAT_ID":47285,"ELEMENT_SET_NO":999,"REV_AT_EPOCH":23312,"BSTAR":-0.00093028591,"MEAN_MOTION_DOT":-3.22e-6,"MEAN_MOTION_DDOT":0},{"OBJECT_NAME":"ONEWEB-0140","OBJECT_ID":"2020-100AE","EPOCH":"2025-10-19T06:55:35.755392","MEAN_MOTION":13.12443968,"ECCENTRICITY":0.00018184,"INCLINATION":87.8965,"RA_OF_ASC_NODE":38.4899,"ARG_OF_PERICENTER":104.0249,"MEAN_ANOMALY":256.1082,"EPHEMERIS_TYPE":0,"CLASSIFICATION_TYPE":"U","NORAD_CAT_ID":47286,"ELEMENT_SET_NO":999,"REV_AT_EPOCH":23309,"BSTAR":0.0014070035,"MEAN_MOTION_DOT":5.19e-6,"MEAN_MOTION_DDOT":0},{"OBJECT_NAME":"ONEWEB-0141","OBJECT_ID":"2020-100AF","EPOCH":"2025-10-19T06:10:59.822976","MEAN_MOTION":13.12436,"ECCENTRICITY":0.0001753,"INCLINATION":87.8957,"RA_OF_ASC_NODE":38.5083,"ARG_OF_PERICENTER":89.9879,"MEAN_ANOMALY":270.145,"EPHEMERIS_TYPE":0,"CLASSIFICATION_TYPE":"U","NORAD_CAT_ID":47287,"ELEMENT_SET_NO":999,"REV_AT_EPOCH":23307,"BSTAR":-0.0009522203,"MEAN_MOTION_DOT":-3.3e-6,"MEAN_MOTION_DDOT":0},{"OBJECT_NAME":"ONEWEB-0142","OBJECT_ID":"2020-100AG","EPOCH":"2025-10-19T07:44:49.431840","MEAN_MOTION":13.12444539,"ECCENTRICITY":0.00019847,"INCLINATION":87.8967,"RA_OF_ASC_NODE":38.5153,"ARG_OF_PERICENTER":92.3739,"MEAN_ANOMALY":267.7617,"EPHEMERIS_TYPE":0,"CLASSIFICATION_TYPE":"U","NORAD_CAT_ID":47288,"ELEMENT_SET_NO":999,"REV_AT_EPOCH":23307,"BSTAR":-0.00095033067,"MEAN_MOTION_DOT":-3.29e-6,"MEAN_MOTION_DDOT":0},{"OBJECT_NAME":"ONEWEB-0143","OBJECT_ID":"2020-100AH","EPOCH":"2025-10-19T06:08:51.826560","MEAN_MOTION":13.12444019,"ECCENTRICITY":0.00016642,"INCLINATION":87.8964,"RA_OF_ASC_NODE":38.5246,"ARG_OF_PERICENTER":101.534,"MEAN_ANOMALY":258.5975,"EPHEMERIS_TYPE":0,"CLASSIFICATION_TYPE":"U","NORAD_CAT_ID":47289,"ELEMENT_SET_NO":999,"REV_AT_EPOCH":23304,"BSTAR":-0.0011381939,"MEAN_MOTION_DOT":-3.97e-6,"MEAN_MOTION_DDOT":0},{"OBJECT_NAME":"ONEWEB-0144","OBJECT_ID":"2020-100AJ","EPOCH":"2025-10-19T07:18:58.960512","MEAN_MOTION":13.12446467,"ECCENTRICITY":0.00020373,"INCLINATION":87.8956,"RA_OF_ASC_NODE":38.4871,"ARG_OF_PERICENTER":102.1888,"MEAN_ANOMALY":257.9469,"EPHEMERIS_TYPE":0,"CLASSIFICATION_TYPE":"U","NORAD_CAT_ID":47290,"ELEMENT_SET_NO":999,"REV_AT_EPOCH":23297,"BSTAR":0.00013672115,"MEAN_MOTION_DOT":6.2e-7,"MEAN_MOTION_DDOT":0},{"OBJECT_NAME":"ONEWEB-0145","OBJECT_ID":"2020-100AK","EPOCH":"2025-10-19T06:36:54.243648","MEAN_MOTION":13.1244463,"ECCENTRICITY":0.00017799,"INCLINATION":87.8965,"RA_OF_ASC_NODE":38.5271,"ARG_OF_PERICENTER":101.3356,"MEAN_ANOMALY":258.7972,"EPHEMERIS_TYPE":0,"CLASSIFICATION_TYPE":"U","NORAD_CAT_ID":47291,"ELEMENT_SET_NO":999,"REV_AT_EPOCH":23316,"BSTAR":0.00076296743,"MEAN_MOTION_DOT":2.87e-6,"MEAN_MOTION_DDOT":0},{"OBJECT_NAME":"ONEWEB-0146","OBJECT_ID":"2020-100AL","EPOCH":"2025-10-19T06:32:13.883424","MEAN_MOTION":13.12445015,"ECCENTRICITY":0.00013921,"INCLINATION":87.8965,"RA_OF_ASC_NODE":38.5146,"ARG_OF_PERICENTER":106.2683,"MEAN_ANOMALY":253.8599,"EPHEMERIS_TYPE":0,"CLASSIFICATION_TYPE":"U","NORAD_CAT_ID":47292,"ELEMENT_SET_NO":999,"REV_AT_EPOCH":23307,"BSTAR":0.00036817655,"MEAN_MOTION_DOT":1.45e-6,"MEAN_MOTION_DDOT":0},{"OBJECT_NAME":"ONEWEB-0147","OBJECT_ID":"2020-100AM","EPOCH":"2025-10-19T07:32:56.933376","MEAN_MOTION":13.12441878,"ECCENTRICITY":0.00018583,"INCLINATION":87.896,"RA_OF_ASC_NODE":38.4841,"ARG_OF_PERICENTER":108.638,"MEAN_ANOMALY":251.4951,"EPHEMERIS_TYPE":0,"CLASSIFICATION_TYPE":"U","NORAD_CAT_ID":47293,"ELEMENT_SET_NO":999,"REV_AT_EPOCH":23297,"BSTAR":-0.0013191293,"MEAN_MOTION_DOT":-4.62e-6,"MEAN_MOTION_DDOT":0},{"OBJECT_NAME":"ONEWEB-0115","OBJECT_ID":"2021-025A","EPOCH":"2025-10-19T05:25:24.112128","MEAN_MOTION":13.13470953,"ECCENTRICITY":0.00017687,"INCLINATION":87.9052,"RA_OF_ASC_NODE":8.0975,"ARG_OF_PERICENTER":101.138,"MEAN_ANOMALY":258.9948,"EPHEMERIS_TYPE":0,"CLASSIFICATION_TYPE":"U","NORAD_CAT_ID":48042,"ELEMENT_SET_NO":999,"REV_AT_EPOCH":22196,"BSTAR":-0.00011034948,"MEAN_MOTION_DOT":-2.8e-7,"MEAN_MOTION_DDOT":0},{"OBJECT_NAME":"ONEWEB-0152","OBJECT_ID":"2021-025B","EPOCH":"2025-10-19T05:44:54.759552","MEAN_MOTION":13.13469928,"ECCENTRICITY":0.00017542,"INCLINATION":87.9041,"RA_OF_ASC_NODE":8.1069,"ARG_OF_PERICENTER":104.2083,"MEAN_ANOMALY":255.9241,"EPHEMERIS_TYPE":0,"CLASSIFICATION_TYPE":"U","NORAD_CAT_ID":48043,"ELEMENT_SET_NO":999,"REV_AT_EPOCH":22192,"BSTAR":-0.00072039955,"MEAN_MOTION_DOT":-2.5e-6,"MEAN_MOTION_DDOT":0},{"OBJECT_NAME":"ONEWEB-0153","OBJECT_ID":"2021-025C","EPOCH":"2025-10-19T05:13:13.836000","MEAN_MOTION":13.13470097,"ECCENTRICITY":0.00018345,"INCLINATION":87.9051,"RA_OF_ASC_NODE":8.1132,"ARG_OF_PERICENTER":99.2498,"MEAN_ANOMALY":260.8838,"EPHEMERIS_TYPE":0,"CLASSIFICATION_TYPE":"U","NORAD_CAT_ID":48044,"ELEMENT_SET_NO":999,"REV_AT_EPOCH":22191,"BSTAR":0.00048785337,"MEAN_MOTION_DOT":1.91e-6,"MEAN_MOTION_DDOT":0},{"OBJECT_NAME":"ONEWEB-0154","OBJECT_ID":"2021-025D","EPOCH":"2025-10-19T06:58:02.110080","MEAN_MOTION":13.13471582,"ECCENTRICITY":0.00018217,"INCLINATION":87.905,"RA_OF_ASC_NODE":8.0951,"ARG_OF_PERICENTER":103.1781,"MEAN_ANOMALY":256.9551,"EPHEMERIS_TYPE":0,"CLASSIFICATION_TYPE":"U","NORAD_CAT_ID":48045,"ELEMENT_SET_NO":999,"REV_AT_EPOCH":22188,"BSTAR":0.00046096016,"MEAN_MOTION_DOT":1.81e-6,"MEAN_MOTION_DDOT":0},{"OBJECT_NAME":"ONEWEB-0116","OBJECT_ID":"2021-025E","EPOCH":"2025-10-19T06:04:24.846240","MEAN_MOTION":13.13471141,"ECCENTRICITY":0.00017007,"INCLINATION":87.9052,"RA_OF_ASC_NODE":8.0858,"ARG_OF_PERICENTER":103.5015,"MEAN_ANOMALY":256.6304,"EPHEMERIS_TYPE":0,"CLASSIFICATION_TYPE":"U","NORAD_CAT_ID":48046,"ELEMENT_SET_NO":999,"REV_AT_EPOCH":22202,"BSTAR":-0.00052004705,"MEAN_MOTION_DOT":-1.77e-6,"MEAN_MOTION_DDOT":0},{"OBJECT_NAME":"ONEWEB-0150","OBJECT_ID":"2021-025F","EPOCH":"2025-10-19T05:30:17.343360","MEAN_MOTION":13.13470569,"ECCENTRICITY":0.00018209,"INCLINATION":87.9052,"RA_OF_ASC_NODE":8.0851,"ARG_OF_PERICENTER":94.3351,"MEAN_ANOMALY":265.7986,"EPHEMERIS_TYPE":0,"CLASSIFICATION_TYPE":"U","NORAD_CAT_ID":48047,"ELEMENT_SET_NO":999,"REV_AT_EPOCH":22191,"BSTAR":-0.00023275532,"MEAN_MOTION_DOT":-7.2e-7,"MEAN_MOTION_DDOT":0}]
