ONEWEB-0138             
1 47284U 20100AC  25292.29509513  .00000473  00000+0  12807-2 0  9995
2 47284  87.8962  38.5127 0001903 105.4814 254.6525 13.12442877233050
ONEWEB-0139             
1 47285U 20100AD  25292.25791094 -.00000322  00000+0 -93029-3 0  9990
2 47285  87.8961  38.5103 0001697 102.4827 257.6492 13.12445942233125
ONEWEB-0140             
1 47286U 20100AE  25292.28860828  .00000519  00000+0  14070-2 0  9990
2 47286  87.8965  38.4899 0001818 104.0249 256.1082 13.12443968233093
ONEWEB-0141             
1 47287U 20100AF  25292.25763684 -.00000330  00000+0 -95222-3 0  9992
2 47287  87.8957  38.5083 0001753  89.9879 270.1450 13.12436000233071
ONEWEB-0142             
1 47288U 20100AG  25292.32279435 -.00000329  00000+0 -95033-3 0  9995
2 47288  87.8967  38.5153 0001984  92.3739 267.7617 13.12444539233073
ONEWEB-0143             
1 47289U 20100AH  25292.25615540 -.00000397  00000+0 -11382-2 0  9998
2 47289  87.8964  38.5246 0001664 101.5340 258.5975 13.12444019233045
ONEWEB-0144             
1 47290U 20100AJ  25292.30484908  .00000062  00000+0  13672-3 0  9990
2 47290  87.8956  38.4871 0002037 102.1888 257.9469 13.12446467232971
ONEWEB-0145             
1 47291U 20100AK  25292.27562782  .00000287  00000+0  76297-3 0  9995
2 47291  87.8965  38.5271 0001779 101.3356 258.7972 13.12444630233160
ONEWEB-0146             
1 47292U 20100AL  25292.27238291  .00000145  00000+0  36818-3 0  9999
2 47292  87.8965  38.5146 0001392 106.2683 253.8599 13.12445015233079
ONEWEB-0147             
1 47293U 20100AM  25292.31454784 -.00000462  00000+0 -13191-2 0  9994
2 47293  87.8960  38.4841 0001858 108.6380 251.4951 13.12441878232970
ONEWEB-0115             
1 48042U 21025A   25292.22597352 -.00000028  00000+0 -11035-3 0  9997
2 48042  87.9052   8.0975 0001768 101.1380 258.9948 13.13470953221967
ONEWEB-0152             
1 48043U 21025B   25292.23952268 -.00000250  00000+0 -72040-3 0  9990
2 48043  87.9041   8.1069 0001754 104.2083 255.9241 13.13469928221929
ONEWEB-0153             
1 48044U 21025C   25292.21752125  .00000191  00000+0  48785-3 0  9990
2 48044  87.9051   8.1132 0001834  99.2498 260.8838 13.13470097221919
ONEWEB-0154             
1 48045U 21025D   25292.29030220  .00000181  00000+0  46096-3 0  9996
2 48045  87.9050   8.0951 0001821 103.1781 256.9551 13.13471582221887
ONEWEB-0116             
1 48046U 21025E   25292.25306535 -.00000177  00000+0 -52005-3 0  9992
2 48046  87.9052   8.0858 0001700 103.5015 256.6304 13.13471141222027
ONEWEB-0150             
1 48047U 21025F   25292.22936740 -.00000072  00000+0 -23276-3 0  9999
2 48047  87.9052   8.0851 0001820  94.3351 265.7986 13.13470569221911
